#dP2019  3 26  0  0  0.00000000      96 __u+U IGS08 FIT  IAC
## 2046 172800.00000000   900.00000000 58568 0.0000000000000
+   97   C01C02C03C04C05C06C07C08C09C10C11C12C13C14C16E01E02
+        E03E04E05E07E08E09E11E12E13E14E15E18E19E21E24E25E26
+        E27E30E31E33E36G01G02G03G04G05G06G07G08G09G10G11G12
+        G13G14G15G16G17G18G19G20G21G22G23G24G25G26G27G28G29
+        G30G31G32J01J02J03R01R02R03R04R05R07R08R09R10R11R13
+        R14R15R16R17R18R19R20R21R22R23R24R26  0  0  0  0  0
++        12 12 12 12 14 10  8  9  8  8  7  8  8  7  8  4  4
++         4  4  4  4  4  4  4  4  4  4  4  5  4  4  4  4  4
++         4  4  4  5  5  3  3  3  3  3  3  3  3  3  3  3  3
++         3  3  3  3  3  3  3  3  3  3  3  3  3  3  3  3  3
++         3  3  3  9  9  9  5  5  5  5  5  5  5  5  5  5  6
++         5  5  6  5  5  5  6  5  5  5  6  8  0  0  0  0  0
%c M  cc GPS ccc cccc cccc cccc cccc ccccc ccccc ccccc ccccc
%c cc cc ccc ccc cccc cccc cccc cccc ccccc ccccc ccccc ccccc
%f  1.2500000  1.025000000  0.00000000000  0.000000000000000
%f  0.0000000  0.000000000  0.00000000000  0.000000000000000
%i    0    0    0    0      0      0      0      0         0
%i    0    0    0    0      0      0      0      0         0
/* INFORMATION & ANALYSIS CENTER (IAC)            FINAL DATA
/* S/V CLOCKS ARE ALIGNED TO GPS & GLONASS TIME RESPECTIVELY
/* USING THE BROADCAST EPHEMERIS                            
/* PCV:IGS14_2038 OL/AL:FES2004  NONE     YN ORB:CoN CLK:CoN
*  2019 03 26  3 30  0.00000000
PC01 -32266.401607  27146.375354    428.780315    377.478622
PC02   4386.005331  41899.120744  -1025.501229   -400.013298
PC03 -14650.456551  39512.345297   -406.837531      9.079328
PC04 -39640.016568  14396.177966   -253.566942     28.974911
PC05  21891.423114  36016.712638  -1016.502386   -162.162085
PC06 -22531.064207  34493.553696   8298.478974    584.884191
PC07  -7651.357983  33222.935033  25204.911903     77.148858
PC08 -17879.945130  17663.465911 -33824.444844    135.451993
PC09 -11520.763103  34245.388389  21655.106184    634.938927
PC10   2861.519443  39176.139025  15957.984661   -606.660424
PC11  -2494.398281 -15510.330135  23116.522384    -69.273296
PC12  23141.364009 -14413.054699   5833.922755    522.422141
PC13  -1660.164335  23323.946175 -35024.286744   -614.799796
PC14   3806.666136 -27636.342631   1459.077606    731.283419
PC16 -19508.252654  35366.783808  11816.439138   -433.128987
PE01 -18215.504117 -22637.216972   5656.019104   -570.017696
PE02  18238.102543  22594.430913  -5717.820607     53.091699
PE03  10361.730197  15302.032041  23127.239192   -148.036914
PE04 -19946.123518   5007.037534 -21283.093808   -248.045670
PE05  -5361.355732  26776.043108  11425.941810     85.256572
PE07  17891.803174 -22539.554916   6921.537318   -156.281735
PE08  19810.729029  -5312.393409  21342.569563   6382.821232
PE09 -17654.981946  22737.604127  -6913.830587   6489.025035
PE11 -21184.922198  11985.086573 -16825.137448   5713.007764
PE12 -29559.036139    209.824925   1282.155315   6455.047277
PE13  21293.929743 -11965.334626  16739.978783    384.708065
PE14 -22065.807010  14037.388928   2739.373907   -504.684199
PE15  29584.344637   -606.559670   -922.398307    915.961530
PE18  26584.171240  -4656.367018 -14635.031867   -604.590144
PE19  -8862.911732 -16928.961053 -22602.159453     -7.507374
PE21  -5637.617263 -25855.981072 -13271.821464   -525.905497
PE24 -10018.972716  14110.797174  23994.498891   6166.125734
PE25   5602.766880  25840.070330  13304.755484   1854.246875
PE26    681.977497 -16528.517204  24556.169392   4756.153059
PE27  10207.799870 -13772.720227 -24134.108593    503.033893
PE30  19957.844405   6062.169873 -21010.582538   5003.142118
PE31 -20045.504207  -6373.580457  20826.806514    873.659884
PE33 -20565.553320 -11164.285343  18131.621232    847.928985
PE36   -489.379738  16353.194284 -24656.211539    732.037092
PG01  20735.303316  14060.011018  -9463.127531   -188.275727
PG02    416.624712 -15964.401374  21848.018433   -172.895637
PG03  12584.012257  19916.383850  12304.150858    187.293558
PG04  22524.140248  -7816.790193  11721.303537    139.190877
PG05  -1580.385436 -25777.281576   5604.603317      1.178197
PG06  13683.537919 -10034.842814  20487.327669    246.438885
PG07  25710.233466   6518.784137  -3675.396067      7.747858
PG08   3479.873470  16010.009953 -20821.373055   -137.531065
PG09  20805.910986  -3206.397636  16158.526792    439.409326
PG10 -12497.164499  10911.193371 -20638.429227     88.657438
PG11  17120.185147  11530.544122 -17122.505843   -638.465776
PG12 -10344.015586 -21662.990719  11352.781863    256.936172
PG13   5847.387112 -18807.652893 -17914.719739    -70.314640
PG14 -17892.202220  18602.729493   6150.656202    -86.961154
PG15  -7295.401828 -14979.665464 -20880.677252   -321.703528
PG16    238.240282  26016.447240   3791.786184    -28.006276
PG17  21794.798893 -14780.390338  -2653.498460     29.080184
PG18  12656.426867  16394.785335 -17189.120465     38.255447
PG19  19166.345391 -17681.469429   5005.243592   -338.092947
PG20 -16273.631691    773.784420 -21098.071299    523.430349
PG21 -25308.689656  -2083.685789  -6737.511329   -225.237985
PG22  10413.135644  23975.176598   5124.862162   -671.500396
PG23  14566.797377   7595.039196  21252.312894   -192.664875
PG24 -18200.208899 -14961.319962 -12731.378663    -63.900992
PG25 -15188.757128 -10696.620059  18875.294091   -737.809752
PG26  -5341.677740  21877.456855  13920.392200    159.040099
PG27  -7232.195707  20209.961128 -15537.900370    -94.093244
PG28  12916.001138  -9270.877506 -20689.018497    766.801184
PG29 -17926.310044  -2497.663141  19412.608369    240.728053
PG30  22457.482077  -2212.581526 -14132.252361    -74.988481
PG31 -13114.527547  10509.744475  20666.100713     49.561751
PG32 -20126.288266  17226.656356   -584.444059   -163.192782
PJ01 -19088.568957  32307.170357 -14584.057668   -338.362127
PJ02 -25328.871007  20865.492266  31217.222637      0.627011
PJ03 -34712.953906  23858.783593   2330.630582     -0.328585
PR01 -10196.087287  -4636.851706 -22912.868149     41.379084
PR02 -12422.685808  16164.144287 -15257.623119    360.572658
PR03  -6663.722267  24563.116029   1357.858683     -7.221054
PR04   3246.401747  18289.666359  17491.251239    299.961921
PR05  10666.403650   2156.797382  23081.920682     24.819634
PR07   6516.714950 -24618.810341  -1735.348427    -17.128681
PR08  -2755.139152 -18857.922060 -16905.489550     18.505921
PR09  10249.275715  -5246.981176 -22757.082134     61.041558
PR10  -2687.229662 -16248.416868 -19476.071808     46.136833
PR11 -15689.832287 -19651.526514  -4145.908772    -60.880348
PR13 -11066.809264   3894.804868  22626.555709    -21.670385
PR14   2808.188777  16457.067908  19294.693944     37.270266
PR15  15261.141316  19801.123362   5064.797288    100.882149
PR16  19230.825046  11296.996620 -12293.569492     10.578028
PR17 -10284.563970  11862.160611 -20100.631485    215.098270
PR18   8105.697863   8639.460850 -22580.733431     38.201501
PR19  22003.916741   1283.447103 -12838.917542    -21.961607
PR20  23565.816957  -7705.078554   6124.339924   -372.922079
PR21   9646.155466 -11791.238405  20458.559206    -38.686678
PR22 -10512.161084  -7737.848827  21896.272307    -11.290984
PR23 -24079.295295   1686.474056   8230.998215    217.663499
PR24 -22674.904711   8740.825983  -7737.359621   -178.617892
PR26  24154.301401  -7269.470185   3737.488817      3.289467
EOF
